[{"id":"27607","name":"SAUDISAT 1C (SO-50)","tle1":"1 27607U 02058C   26176.17970424  .00000928  00000+0  12668-3 0  9997","tle2":"2 27607  64.5519 104.2569 0075079 260.9817  98.2786 14.83062534265641"},{"id":"28371","name":"SAUDISAT 2","tle1":"1 28371U 04025F   26176.27165818  .00000247  00000+0  66262-4 0  9990","tle2":"2 28371  98.5508 176.4625 0023440 272.1357  87.7156 14.56688107166923"},{"id":"31118","name":"SAUDISAT 3","tle1":"1 31118U 07012B   26175.60291928  .00000205  00000+0  41315-4 0  9996","tle2":"2 31118  98.1456 126.0084 0014117 198.8462 161.2223 14.71429238 28831"},{"id":"41784","name":"PISAT","tle1":"1 41784U 16059B   26176.24974655  .00000876  00000+0  15650-3 0  9999","tle2":"2 41784  97.8179 176.3561 0029058 176.7677 183.3723 14.68996042520925"},{"id":"42831","name":"FLYING LAPTOP","tle1":"1 42831U 17042G   26176.31763641  .00002947  00000+0  23325-3 0  9994","tle2":"2 42831  97.4722 331.5390 0019949  95.8241 264.5258 15.01192342487678"},{"id":"46495","name":"SALSAT","tle1":"1 46495U 20068K   26176.25605951  .00008540  00000+0  29756-3 0  9997","tle2":"2 46495  97.8852 179.8123 0007805 273.7441  86.2905 15.29904088316598"}]